[{"OBJECT_NAME":"JY1SAT (JO-97)","OBJECT_ID":"2018-099AX","EPOCH":"2026-03-09T16:28:19.890048","MEAN_MOTION":15.30302629,"ECCENTRICITY":0.00047232,"INCLINATION":97.4249,"RA_OF_ASC_NODE":131.3625,"ARG_OF_PERICENTER":256.6795,"MEAN_ANOMALY":103.3919,"EPHEMERIS_TYPE":0,"CLASSIFICATION_TYPE":"U","NORAD_CAT_ID":43803,"ELEMENT_SET_NO":999,"REV_AT_EPOCH":39839,"BSTAR":0.00060804308,"MEAN_MOTION_DOT":0.00017774,"MEAN_MOTION_DDOT":0},{"OBJECT_NAME":"STARLINK-2703","OBJECT_ID":"2021-040AA","EPOCH":"2026-03-09T13:29:54.148128","MEAN_MOTION":15.3021143,"ECCENTRICITY":0.0001645,"INCLINATION":53.1622,"RA_OF_ASC_NODE":178.7354,"ARG_OF_PERICENTER":114.5451,"MEAN_ANOMALY":245.5721,"EPHEMERIS_TYPE":0,"CLASSIFICATION_TYPE":"U","NORAD_CAT_ID":48452,"ELEMENT_SET_NO":999,"REV_AT_EPOCH":26666,"BSTAR":1.8217e-5,"MEAN_MOTION_DOT":1.8e-6,"MEAN_MOTION_DDOT":0}]
